DUCHIFAT-1              
1 40021U 14033M   26153.68224173  .00099172  00000+0  11397-2 0  9998
2 40021  98.0473 210.8393 0005095 141.7306 218.4313 15.61688703653480
NANOSATC-BR1            
1 40024U 14033Q   26155.07054278  .00018591  00000+0  62230-3 0  9992
2 40024  98.0721 186.3011 0003039 201.8474 158.2636 15.31019931651972
QB50P1                  
1 40025U 14033R   26154.57246974  .00009724  00000+0  48090-3 0  9999
2 40025  98.0967 164.7661 0007059 272.3380  87.7044 15.18040602650962
DTUSAT-2                
1 40030U 14033W   26155.22591472  .00007774  00000+0  42187-3 0  9998
2 40030  98.0864 152.1319 0006143 280.7902  79.2636 15.14842658650725
QB50P2                  
1 40032U 14033Y   26155.22138674  .00007558  00000+0  40867-3 0  9994
2 40032  98.0753 151.2965 0006641 207.6654 152.4224 15.14981717650701
PERSEUS-M1              
1 40039U 14033AF  26155.05690024  .00002617  00000+0  24106-3 0  9993
2 40039  97.9641  98.9742 0011068 349.8422  10.2573 14.95587199648678
POLYITAN-1              
1 40042U 14033AJ  26154.99786768  .00019995  00000+0  63302-3 0  9998
2 40042  98.0949 180.0160 0007537 180.7308 179.3922 15.32773760651574
TIGRISAT                
1 40043U 14033AK  26154.97768297  .00002692  00000+0  31399-3 0  9991
2 40043  97.7821 305.2937 0050618 117.3579 243.2801 14.85106187643665
CANX-4                  
1 40055U 14034C   26154.64168014  .00001125  00000+0  15162-3 0  9990
2 40055  98.3136  29.4566 0013938  57.9820 302.2744 14.81238223642528
CANX-5                  
1 40056U 14034D   26155.11312660  .00001234  00000+0  16550-3 0  9995
2 40056  98.3139  29.9882 0013923  56.6569 303.5973 14.81257124633404
GONETS-M 10             
1 40063U 14036C   26155.27199219  .00000024  00000+0  10424-3 0  9995
2 40063  82.5105 315.6979 0022141 167.9846 192.1767 12.42945217540646
METEOR-M 2              
1 40069U 14037A   26155.26420928  .00000346  00000+0  17751-3 0  9992
2 40069  98.5110 131.4610 0007050  75.3706 284.8254 14.21458413617483
DX1                     
1 40071U 14037C   26155.26595661  .00002228  00000+0  23775-3 0  9996
2 40071  98.3867 116.1855 0006414 326.8813  33.2000 14.89947179644188
UKUBE-1                 
1 40074U 14037F   26154.54849194  .00010176  00000+0  57523-3 0  9991
2 40074  98.4235 156.3901 0001646 150.7111 209.4210 15.13321645646494
GAOFEN-2                
1 40118U 14049A   26155.27087184  .00000796  00000+0  10997-3 0  9998
2 40118  98.0110 219.4897 0005930 278.0814  81.9725 14.80884721637328
BRITE-PL2 (HEWELIUSZ)   
1 40119U 14049B   26154.31365131  .00002604  00000+0  24600-3 0  9990
2 40119  97.9084 266.2083 0014815 151.1613 209.0429 14.94537783639373
CBERS 4                 
1 40336U 14079A   26155.28174191 -.00000006  00000+0  12465-4 0  9997
2 40336  98.3534 212.5174 0002056  78.1177 282.0240 14.35505044602104
SMAP                    
1 40376U 15003A   26155.29346751  .00000571  00000+0  11957-3 0  9993
2 40376  98.1276 162.5708 0001260  90.7064 269.4282 14.63355068605734
GONETS-M 11             
1 40552U 15020A   26155.28974806  .00000053  00000+0  31010-3 0  9992
2 40552  82.4880  39.0289 0017101  32.7714 327.4423 12.42876647507131
GONETS-M 12             
1 40553U 15020B   26155.26338264  .00000076  00000+0  47898-3 0  9999
2 40553  82.4914  40.1656 0015910  18.4259 341.7393 12.42890907507121
GONETS-M 13             
1 40554U 15020C   26155.31714420  .00000081  00000+0  51246-3 0  9996
2 40554  82.4875  38.7512 0014270   4.1309 355.9886 12.42869846507108
DMC3-FM1                
1 40715U 15032A   26155.27447245  .00000743  00000+0  91514-4 0  9999
2 40715  97.6472  20.9553 0007111  92.2806 267.9224 14.85724569587996
DMC3-FM2                
1 40716U 15032B   26155.29657375  .00000214  00000+0  30563-4 0  9999
2 40716  97.6526  22.5411 0007528  97.0277 263.1795 14.85726678587999
DMC3-FM3                
1 40717U 15032C   26155.25246238  .00000753  00000+0  92648-4 0  9998
2 40717  97.6579  24.2436 0006765  97.1455 263.0530 14.85717570587992
CARBONITE 1 (CBNT-1)    
1 40718U 15032D   26155.30024012  .00001231  00000+0  15546-3 0  9992
2 40718  97.6500 333.9067 0014121 343.0606  17.0135 14.83543822587435
LILACSAT-2              
1 40908U 15049K   26155.30633934  .00018886  00000+0  32650-3 0  9999
2 40908  97.4655 191.6615 0005381 307.9297  52.1468 15.51001043593757
