OBJECT_NAME,OBJECT_ID,EPOCH,MEAN_MOTION,ECCENTRICITY,INCLINATION,RA_OF_ASC_NODE,ARG_OF_PERICENTER,MEAN_ANOMALY,EPHEMERIS_TYPE,CLASSIFICATION_TYPE,NORAD_CAT_ID,ELEMENT_SET_NO,REV_AT_EPOCH,BSTAR,MEAN_MOTION_DOT,MEAN_MOTION_DDOT
DUCHIFAT-1,2014-033M,2026-06-02T16:22:25.685472,15.61688703,.00050954,98.0473,210.8393,141.7306,218.4313,0,U,40021,999,65348,.11397187E-2,.99172E-3,0
NANOSATC-BR1,2014-033Q,2026-06-04T01:41:34.896192,15.31019931,.00030394,98.0721,186.3011,201.8474,158.2636,0,U,40024,999,65197,.62230174E-3,.18591E-3,0
QB50P1,2014-033R,2026-06-03T13:44:21.385536,15.18040602,.00070591,98.0967,164.7661,272.3380,87.7044,0,U,40025,999,65096,.48089613E-3,.9724E-4,0
DTUSAT-2,2014-033W,2026-06-04T05:25:19.031808,15.14842658,.00061437,98.0864,152.1319,280.7902,79.2636,0,U,40030,999,65072,.42187473E-3,.7774E-4,0
QB50P2,2014-033Y,2026-06-04T05:18:47.814336,15.14981717,.00066415,98.0753,151.2965,207.6654,152.4224,0,U,40032,999,65070,.40866692E-3,.7558E-4,0
PERSEUS-M1,2014-033AF,2026-06-04T01:21:56.180736,14.95587199,.00110683,97.9641,98.9742,349.8422,10.2573,0,U,40039,999,64867,.24106212E-3,.2617E-4,0
POLYITAN-1,2014-033AJ,2026-06-03T23:56:55.767552,15.32773760,.00075376,98.0949,180.0160,180.7308,179.3922,0,U,40042,999,65157,.63302459E-3,.19995E-3,0
TIGRISAT,2014-033AK,2026-06-03T23:27:51.808608,14.85106187,.0050618,97.7821,305.2937,117.3579,243.2801,0,U,40043,999,64366,.31399118E-3,.2692E-4,0
CANX-4,2014-034C,2026-06-03T15:24:01.164096,14.81238223,.0013938,98.3136,29.4566,57.9820,302.2744,0,U,40055,999,64252,.15162E-3,.1125E-4,0
CANX-5,2014-034D,2026-06-04T02:42:54.138240,14.81257124,.00139237,98.3139,29.9882,56.6569,303.5973,0,U,40056,999,63340,.16549745E-3,.1234E-4,0
GONETS-M 10,2014-036C,2026-06-04T06:31:40.125216,12.42945217,.00221412,82.5105,315.6979,167.9846,192.1767,0,U,40063,999,54064,.10424072E-3,.24E-6,0
METEOR-M 2,2014-037A,2026-06-04T06:20:27.681792,14.21458413,.00070504,98.5110,131.4610,75.3706,284.8254,0,U,40069,999,61748,.17751492E-3,.346E-5,0
DX1,2014-037C,2026-06-04T06:22:58.651104,14.89947179,.00064146,98.3867,116.1855,326.8813,33.2000,0,U,40071,999,64418,.23775018E-3,.2228E-4,0
UKUBE-1,2014-037F,2026-06-03T13:09:49.703616,15.13321645,.00016466,98.4235,156.3901,150.7111,209.4210,0,U,40074,999,64649,.57522925E-3,.10176E-3,0
GAOFEN-2,2014-049A,2026-06-04T06:30:03.326976,14.80884721,.00059302,98.0110,219.4897,278.0814,81.9725,0,U,40118,999,63732,.10996949E-3,.796E-5,0
BRITE-PL2 (HEWELIUSZ),2014-049B,2026-06-03T07:31:39.473184,14.94537783,.00148153,97.9084,266.2083,151.1613,209.0429,0,U,40119,999,63937,.2460017E-3,.2604E-4,0
CBERS 4,2014-079A,2026-06-04T06:45:42.501024,14.35505044,.00020561,98.3534,212.5174,78.1177,282.0240,0,U,40336,999,60210,.1246505E-4,-.6E-7,0
SMAP,2015-003A,2026-06-04T07:02:35.592864,14.63355068,.000126,98.1276,162.5708,90.7064,269.4282,0,U,40376,999,60573,.11957265E-3,.571E-5,0
GONETS-M 11,2015-020A,2026-06-04T06:57:14.232384,12.42876647,.00171018,82.4880,39.0289,32.7714,327.4423,0,U,40552,999,50713,.31009847E-3,.53E-6,0
GONETS-M 12,2015-020B,2026-06-04T06:19:16.260096,12.42890907,.00159102,82.4914,40.1656,18.4259,341.7393,0,U,40553,999,50712,.47898004E-3,.76E-6,0
GONETS-M 13,2015-020C,2026-06-04T07:36:41.258880,12.42869846,.00142705,82.4875,38.7512,4.1309,355.9886,0,U,40554,999,50710,.51245893E-3,.81E-6,0
DMC3-FM1,2015-032A,2026-06-04T06:35:14.419680,14.85724569,.00071111,97.6472,20.9553,92.2806,267.9224,0,U,40715,999,58799,.91514466E-4,.743E-5,0
DMC3-FM2,2015-032B,2026-06-04T07:07:03.972000,14.85726678,.00075288,97.6526,22.5411,97.0277,263.1795,0,U,40716,999,58799,.30562537E-4,.214E-5,0
DMC3-FM3,2015-032C,2026-06-04T06:03:32.749632,14.85717570,.00067654,97.6579,24.2436,97.1455,263.0530,0,U,40717,999,58799,.92648126E-4,.753E-5,0
CARBONITE 1 (CBNT-1),2015-032D,2026-06-04T07:12:20.746368,14.83543822,.00141214,97.6500,333.9067,343.0606,17.0135,0,U,40718,999,58743,.15545852E-3,.1231E-4,0
LILACSAT-2,2015-049K,2026-06-04T07:21:07.718976,15.51001043,.00053811,97.4655,191.6615,307.9297,52.1468,0,U,40908,999,59375,.32650105E-3,.18886E-3,0
